0 DELTA 1 DEB
1 12529U 76077DJ  13281.83914813 -.00007742  00000-0 -13660+0 0  9984
2 12529 103.4712 144.3062 0769113 043.3499 322.5444 11.16511512314217
0 DELTA 1 DEB
1 12529U 76077DJ  13284.16853150 -.00009945  00000-0 -17467+0 0  9996
2 12529 103.4706 146.3419 0772570 040.2888 325.2814 11.16515664314478
0 DELTA 1 DEB
1 12529U 76077DJ  13288.11047597 -.00000258  00000-0 -38582-2 0    11
2 12529 103.4695 149.7898 0781006 035.3274 329.6995 11.16555761314910
0 DELTA 1 DEB
1 12529U 76077DJ  13291.87308817  .00003045  00000-0  52789-1 0    23
2 12529 103.4703 153.0810 0788286 030.6254 333.8413 11.16608273315331
0 DELTA 1 DEB
1 12529U 76077DJ  13293.21681543  .00008678  00000-0  15067+0 0    37
2 12529 103.4712 154.2614 0782484 028.4722 335.6807 11.16619742315481
0 DELTA 1 DEB
1 12529U 76077DJ  13294.56054511  .00009725  00000-0  16850+0 0    41
2 12529 103.4712 155.4378 0783317 026.6712 337.2449 11.16631030315637
0 DELTA 1 DEB
1 12529U 76077DJ  13295.45636435  .00007484  00000-0  12903+0 0    57
2 12529 103.4707 156.2203 0786940 025.6273 338.1639 11.16649795315732
